OBJECT_NAME,OBJECT_ID,EPOCH,MEAN_MOTION,ECCENTRICITY,INCLINATION,RA_OF_ASC_NODE,ARG_OF_PERICENTER,MEAN_ANOMALY,EPHEMERIS_TYPE,CLASSIFICATION_TYPE,NORAD_CAT_ID,ELEMENT_SET_NO,REV_AT_EPOCH,BSTAR,MEAN_MOTION_DOT,MEAN_MOTION_DDOT
STARLINK-37738,2026-119W,2026-06-06T12:00:02.000160,15.88278264,.00010251,97.2837,182.7476,87.6078,271.4821,0,U,69316,999,233,-.10127206E-1,-.2343455E-1,0
STARLINK-37799,2026-119X,2026-06-06T12:00:02.000160,15.88679529,.00012269,97.2836,182.7489,78.0399,284.0590,0,U,69317,999,228,-.92262716E-2,-.2204146E-1,0
STARLINK-37802,2026-119Y,2026-06-06T12:00:02.000160,15.90181518,.00010937,97.2841,182.7506,68.5702,297.0411,0,U,69318,999,233,-.66361895E-2,-.1972751E-1,.10429592E-2
STARLINK-37803,2026-119Z,2026-06-06T12:00:02.000160,15.90412864,.00010154,97.2841,182.7517,83.1811,284.9172,0,U,69319,999,228,-.70988209E-2,-.2133044E-1,.12111406E-2
GUOWANG TEST OBJECT A,2026-120A,2026-06-06T02:21:55.132128,15.38777591,.00094863,54.9973,77.6770,290.5105,69.4905,0,U,69320,999,98,.32226064E-3,.12167E-3,0
GUOWANG TEST OBJECT B,2026-120B,2026-06-04T06:41:24.658368,15.39121370,.00091004,55.0006,85.8667,296.4175,63.5919,0,U,69321,999,70,.6938966E-3,.27005E-3,0
GUOWANG TEST OBJECT C,2026-120C,2026-06-06T11:39:02.232000,15.39507724,.00099291,54.9971,75.9132,306.7989,53.2128,0,U,69322,999,104,.61195865E-3,.24073E-3,0
GUOWANG TEST OBJECT D,2026-120D,2026-06-04T15:59:40.712352,15.39704502,.00080029,55.0029,84.1123,301.7889,58.2360,0,U,69323,999,76,.80800046E-3,.32137E-3,0
QIANFAN-163,2026-121A,2026-06-06T15:10:37.038432,13.60350929,.00190842,89.0163,301.5834,218.2148,141.7657,0,U,69325,999,72,.24513418E-4,.31E-6,0
QIANFAN-164,2026-121B,2026-06-06T15:09:46.109088,13.60504179,.00184476,89.0161,301.5829,219.6890,140.2917,0,U,69326,999,72,.16046001E-3,.133E-5,0
SZ-22 MODULE,2025-272C,2026-06-06T08:33:29.038176,15.59786263,.00080306,41.4811,27.9298,359.5995,0.4836,0,U,69328,999,163,.32427888E-3,.2654E-3,0
